{
  "type": "FeatureCollection",
  "features": [
    {
      "type": "Feature",
      "geometry": {
        "type": "Polygon",
        "coordinates": [
          [
            [
              77.22915433,
              28.629955
            ],
            [
              77.23264059,
              28.629955
            ],
            [
              77.23264059,
              28.630081
            ],
            [
              77.22915433,
              28.630081
            ],
            [
              77.22915433,
              28.629955
            ]
          ]
        ]
      },
      "properties": {
        "id": "FLY-06-01",
        "name": "Central Market Zone Elevated Bypass Flyover (Deck: +8.5m)",
        "asset_type": "FLYOVER",
        "elevation_meters": 8.5,
        "length_meters": 340,
        "width_meters": 14.0,
        "operator": "PWD Delhi / NHAI",
        "status": "OPERATIONAL",
        "associated_road": "RD-06-01"
      }
    }
  ]
}