{
  "type": "FeatureCollection",
  "features": [
    {
      "type": "Feature",
      "geometry": {
        "type": "Polygon",
        "coordinates": [
          [
            [
              77.20828225,
              28.627802
            ],
            [
              77.21115324,
              28.627802
            ],
            [
              77.21115324,
              28.62791
            ],
            [
              77.20828225,
              28.62791
            ],
            [
              77.20828225,
              28.627802
            ]
          ]
        ]
      },
      "properties": {
        "id": "TNL-01-01",
        "name": "Central Heights Subsurface Vehicular Tunnel (Depth: -8.5m)",
        "asset_type": "TUNNEL",
        "depth_meters": 8.5,
        "length_meters": 280,
        "width_meters": 12.0,
        "operator": "PWD Delhi",
        "status": "OPERATIONAL",
        "associated_parcels": "PRC-01-012 to PRC-01-024"
      }
    },
    {
      "type": "Feature",
      "geometry": {
        "type": "Polygon",
        "coordinates": [
          [
            [
              77.20776958,
              28.629125
            ],
            [
              77.21166591,
              28.629125
            ],
            [
              77.21166591,
              28.629215
            ],
            [
              77.20776958,
              28.629215
            ],
            [
              77.20776958,
              28.629125
            ]
          ]
        ]
      },
      "properties": {
        "id": "TNL-01-02",
        "name": "Central Heights Yellow Line Metro Rail Tunnel (Depth: -14.2m)",
        "asset_type": "TUNNEL",
        "depth_meters": 14.2,
        "length_meters": 380,
        "width_meters": 10.0,
        "operator": "DMRC",
        "status": "OPERATIONAL",
        "associated_parcels": "PRC-01-001 to PRC-01-008"
      }
    }
  ]
}