{
  "type": "FeatureCollection",
  "features": [
    {
      "type": "Feature",
      "geometry": {
        "type": "Polygon",
        "coordinates": [
          [
            [
              77.20415398,
              28.649955
            ],
            [
              77.20764091,
              28.649955
            ],
            [
              77.20764091,
              28.650081
            ],
            [
              77.20415398,
              28.650081
            ],
            [
              77.20415398,
              28.649955
            ]
          ]
        ]
      },
      "properties": {
        "id": "FLY-08-01",
        "name": "Integrated Urban Zone Elevated Bypass Flyover (Deck: +8.5m)",
        "asset_type": "FLYOVER",
        "elevation_meters": 8.5,
        "length_meters": 340,
        "width_meters": 14.0,
        "operator": "PWD Delhi / NHAI",
        "status": "OPERATIONAL",
        "associated_road": "RD-08-01"
      }
    }
  ]
}