{
  "type": "FeatureCollection",
  "features": [
    {
      "type": "Feature",
      "geometry": {
        "type": "Polygon",
        "coordinates": [
          [
            [
              77.2064615,
              28.650225
            ],
            [
              77.20712812,
              28.650225
            ],
            [
              77.20712812,
              28.65063
            ],
            [
              77.2064615,
              28.65063
            ],
            [
              77.2064615,
              28.650225
            ]
          ]
        ]
      },
      "properties": {
        "id": "BLD-08-03",
        "name": "Integrated Urban Zone Civic Grand Mall & Retail Hub",
        "ulpin": "IN-08-0003",
        "building_code": "BLD-08-03",
        "building_type": "COMMERCIAL",
        "total_floors": 4,
        "basement_floors": 2,
        "height_meters": 18.5,
        "footprint_area_sqm": 2925,
        "ground_elevation": 215.0,
        "color": "#F59E0B",
        "has_3d": true
      }
    }
  ]
}