{
  "type": "FeatureCollection",
  "features": [
    {
      "type": "Feature",
      "geometry": {
        "type": "Polygon",
        "coordinates": [
          [
            [
              77.21215454,
              28.617955
            ],
            [
              77.21564041,
              28.617955
            ],
            [
              77.21564041,
              28.618081
            ],
            [
              77.21215454,
              28.618081
            ],
            [
              77.21215454,
              28.617955
            ]
          ]
        ]
      },
      "properties": {
        "id": "FLY-05-01",
        "name": "Urban Heights Elevated Bypass Flyover (Deck: +8.5m)",
        "asset_type": "FLYOVER",
        "elevation_meters": 8.5,
        "length_meters": 340,
        "width_meters": 14.0,
        "operator": "PWD Delhi / NHAI",
        "status": "OPERATIONAL",
        "associated_road": "RD-05-01"
      }
    }
  ]
}