{
  "type": "FeatureCollection",
  "features": [
    {
      "type": "Feature",
      "geometry": {
        "type": "Polygon",
        "coordinates": [
          [
            [
              77.20538466,
              28.651035
            ],
            [
              77.20584617,
              28.651035
            ],
            [
              77.20584617,
              28.651233
            ],
            [
              77.20538466,
              28.651233
            ],
            [
              77.20538466,
              28.651035
            ]
          ]
        ]
      },
      "properties": {
        "id": "BLD-08-05",
        "name": "Integrated Urban Zone Metro Interchange Station (Elevated +6m)",
        "ulpin": "IN-08-0002",
        "building_code": "BLD-08-05",
        "building_type": "INFRASTRUCTURE",
        "total_floors": 2,
        "height_meters": 14.0,
        "base_height": 6.0,
        "operator": "DMRC",
        "status": "OPERATIONAL",
        "has_3d": true
      }
    }
  ]
}