{
  "type": "FeatureCollection",
  "features": [
    {
      "type": "Feature",
      "geometry": {
        "type": "Polygon",
        "coordinates": [
          [
            [
              77.20733324,
              28.650855
            ],
            [
              77.20815369,
              28.650855
            ],
            [
              77.20815369,
              28.651143
            ],
            [
              77.20733324,
              28.651143
            ],
            [
              77.20733324,
              28.650855
            ]
          ]
        ]
      },
      "properties": {
        "id": "BLD-08-04",
        "name": "Integrated Urban Zone Central Junction Railway Terminal",
        "ulpin": "IN-08-0001",
        "building_code": "BLD-08-04",
        "building_type": "INFRASTRUCTURE",
        "total_floors": 2,
        "height_meters": 12.0,
        "operator": "Northern Railways",
        "status": "OPERATIONAL",
        "has_3d": true
      }
    }
  ]
}