{
  "type": "FeatureCollection",
  "features": [
    {
      "type": "Feature",
      "geometry": {
        "type": "Polygon",
        "coordinates": [
          [
            [
              77.22138469,
              28.646035
            ],
            [
              77.22184617,
              28.646035
            ],
            [
              77.22184617,
              28.646233
            ],
            [
              77.22138469,
              28.646233
            ],
            [
              77.22138469,
              28.646035
            ]
          ]
        ]
      },
      "properties": {
        "id": "BLD-09-05",
        "name": "Vertical City District Metro Interchange Station (Elevated +6m)",
        "ulpin": "IN-09-0002",
        "building_code": "BLD-09-05",
        "building_type": "INFRASTRUCTURE",
        "total_floors": 2,
        "height_meters": 14.0,
        "base_height": 6.0,
        "operator": "DMRC",
        "status": "OPERATIONAL",
        "has_3d": true
      }
    }
  ]
}