{
  "type": "FeatureCollection",
  "features": [
    {
      "type": "Feature",
      "geometry": {
        "type": "Polygon",
        "coordinates": [
          [
            [
              77.22438482,
              28.623035
            ],
            [
              77.22484621,
              28.623035
            ],
            [
              77.22484621,
              28.623233
            ],
            [
              77.22438482,
              28.623233
            ],
            [
              77.22438482,
              28.623035
            ]
          ]
        ]
      },
      "properties": {
        "id": "BLD-03-05",
        "name": "Civic Square Metro Interchange Station (Elevated +6m)",
        "ulpin": "IN-03-0002",
        "building_code": "BLD-03-05",
        "building_type": "INFRASTRUCTURE",
        "total_floors": 2,
        "height_meters": 14.0,
        "base_height": 6.0,
        "operator": "DMRC",
        "status": "OPERATIONAL",
        "has_3d": true
      }
    }
  ]
}