{
  "type": "FeatureCollection",
  "features": [
    {
      "type": "Feature",
      "geometry": {
        "type": "Polygon",
        "coordinates": [
          [
            [
              77.22633288,
              28.622855
            ],
            [
              77.22715311,
              28.622855
            ],
            [
              77.22715311,
              28.623143
            ],
            [
              77.22633288,
              28.623143
            ],
            [
              77.22633288,
              28.622855
            ]
          ]
        ]
      },
      "properties": {
        "id": "BLD-03-04",
        "name": "Civic Square Central Junction Railway Terminal",
        "ulpin": "IN-03-0001",
        "building_code": "BLD-03-04",
        "building_type": "INFRASTRUCTURE",
        "total_floors": 2,
        "height_meters": 12.0,
        "operator": "Northern Railways",
        "status": "OPERATIONAL",
        "has_3d": true
      }
    }
  ]
}