{
  "type": "FeatureCollection",
  "features": [
    {
      "type": "Feature",
      "geometry": {
        "type": "Polygon",
        "coordinates": [
          [
            [
              77.19438481,
              28.626035
            ],
            [
              77.1948462,
              28.626035
            ],
            [
              77.1948462,
              28.626233
            ],
            [
              77.19438481,
              28.626233
            ],
            [
              77.19438481,
              28.626035
            ]
          ]
        ]
      },
      "properties": {
        "id": "BLD-07-05",
        "name": "Civic Transit Zone Metro Interchange Station (Elevated +6m)",
        "ulpin": "IN-07-0002",
        "building_code": "BLD-07-05",
        "building_type": "INFRASTRUCTURE",
        "total_floors": 2,
        "height_meters": 14.0,
        "base_height": 6.0,
        "operator": "DMRC",
        "status": "OPERATIONAL",
        "has_3d": true
      }
    }
  ]
}