{
  "type": "FeatureCollection",
  "features": [
    {
      "type": "Feature",
      "geometry": {
        "type": "Polygon",
        "coordinates": [
          [
            [
              77.2081543,
              28.631955
            ],
            [
              77.21164062,
              28.631955
            ],
            [
              77.21164062,
              28.632081
            ],
            [
              77.2081543,
              28.632081
            ],
            [
              77.2081543,
              28.631955
            ]
          ]
        ]
      },
      "properties": {
        "id": "FLY-10-01",
        "name": "Central Urban Core Elevated Bypass Flyover (Deck: +8.5m)",
        "asset_type": "FLYOVER",
        "elevation_meters": 8.5,
        "length_meters": 340,
        "width_meters": 14.0,
        "operator": "PWD Delhi / NHAI",
        "status": "OPERATIONAL",
        "associated_road": "RD-10-01"
      }
    }
  ]
}