{
  "type": "FeatureCollection",
  "features": [
    {
      "type": "Feature",
      "geometry": {
        "type": "Polygon",
        "coordinates": [
          [
            [
              77.22015407,
              28.644955
            ],
            [
              77.22364083,
              28.644955
            ],
            [
              77.22364083,
              28.645081
            ],
            [
              77.22015407,
              28.645081
            ],
            [
              77.22015407,
              28.644955
            ]
          ]
        ]
      },
      "properties": {
        "id": "FLY-09-01",
        "name": "Vertical City District Elevated Bypass Flyover (Deck: +8.5m)",
        "asset_type": "FLYOVER",
        "elevation_meters": 8.5,
        "length_meters": 340,
        "width_meters": 14.0,
        "operator": "PWD Delhi / NHAI",
        "status": "OPERATIONAL",
        "associated_road": "RD-09-01"
      }
    }
  ]
}